[{"OBJECT_NAME":"SKYSAT-C13","OBJECT_ID":"2018-099AW","EPOCH":"2026-03-09T15:57:39.212352","MEAN_MOTION":15.7671015,"ECCENTRICITY":0.00039856,"INCLINATION":96.9402,"RA_OF_ASC_NODE":116.3001,"ARG_OF_PERICENTER":199.1701,"MEAN_ANOMALY":160.9417,"EPHEMERIS_TYPE":0,"CLASSIFICATION_TYPE":"U","NORAD_CAT_ID":43802,"ELEMENT_SET_NO":999,"REV_AT_EPOCH":40716,"BSTAR":0.00055859913,"MEAN_MOTION_DOT":0.00089861,"MEAN_MOTION_DDOT":0},{"OBJECT_NAME":"STARLINK-36584","OBJECT_ID":"2026-014R","EPOCH":"2026-03-09T16:12:04.814208","MEAN_MOTION":15.75240381,"ECCENTRICITY":0.00015253,"INCLINATION":97.2845,"RA_OF_ASC_NODE":313.6447,"ARG_OF_PERICENTER":70.3922,"MEAN_ANOMALY":289.7508,"EPHEMERIS_TYPE":0,"CLASSIFICATION_TYPE":"U","NORAD_CAT_ID":67547,"ELEMENT_SET_NO":999,"REV_AT_EPOCH":857,"BSTAR":0.0010920757,"MEAN_MOTION_DOT":0.00166334,"MEAN_MOTION_DDOT":0}]
