SKYSAT-C13              
1 43802U 18099AW  26068.66503718  .00089861  00000+0  55860-3 0  9990
2 43802  96.9402 116.3001 0003986 199.1701 160.9417 15.76710150407164
STARLINK-36584          
1 67547U 26014R   26068.67505572  .00166334  00000+0  10921-2 0  9998
2 67547  97.2845 313.6447 0001525  70.3922 289.7508 15.75240381  8575
